Url,Status,Name,Organisation,Address,City,State,Zip Code,Country,E-mails,Domain,Alexa Rank,Registrar
https://home-paypal-jp.moonkahonda.com/panel_JP/-/jp/xppl/,Malicious,MOONKAHONDA.COM,Anmoul Infomatics Pvt. Ltd.,84, New Baradwari, Sakchi, Jamshedpur,Jamshedpur,Jharkhand,831001,IN,abuse-contact@publicdomainregistry.comanmolsingh@anmoul.com,MOONKAHONDA.COM,7290145,PDR Ltd. d/b/a PublicDomainRegistry.com
https://galsterberg.panomax.com/,Legitimate,PANOMAX.COMpanomax.com,VISIT,REDACTED FOR PRIVACY,REDACTED FOR PRIVACY,Salzburg,REDACTED FOR PRIVACY,AT,domain-abuse@psi-usa.info,PANOMAX.COMpanomax.com,95866,PSI-USA Inc. dba Domain Robot
https://oberstdorf.panomax.com/schrattenwang,Legitimate,PANOMAX.COMpanomax.com,VISIT,REDACTED FOR PRIVACY,REDACTED FOR PRIVACY,Salzburg,REDACTED FOR PRIVACY,AT,domain-abuse@psi-usa.info,PANOMAX.COMpanomax.com,95866,PSI-USA Inc. dba Domain Robot
https://addons.mozilla.org/de/firefox/addon/mynthos-tv/?src=search,Legitimate,MOZILLA.ORGmozilla.org,Mozilla Corporation,None,None,CA,None,US,abusecomplaints@markmonitor.comwhoisrequest@markmonitor.com,MOZILLA.ORGmozilla.org,262,MarkMonitor Inc.
http://www.google.com,Legitimate,GOOGLE.COMgoogle.com,Google LLC,None,None,CA,None,US,abusecomplaints@markmonitor.comwhoisrequest@markmonitor.com,GOOGLE.COMgoogle.com,1,MarkMonitor Inc.
https://www.google.com,Legitimate,GOOGLE.COMgoogle.com,Google LLC,None,None,CA,None,US,abusecomplaints@markmonitor.comwhoisrequest@markmonitor.com,GOOGLE.COMgoogle.com,1,MarkMonitor Inc.
https://www.google.com/,Legitimate,GOOGLE.COMgoogle.com,Google LLC,None,None,CA,None,US,abusecomplaints@markmonitor.comwhoisrequest@markmonitor.com,GOOGLE.COMgoogle.com,1,MarkMonitor Inc.
https://www.google.com/,Legitimate,GOOGLE.COMgoogle.com,Google LLC,None,None,CA,None,US,abusecomplaints@markmonitor.comwhoisrequest@markmonitor.com,GOOGLE.COMgoogle.com,1,MarkMonitor Inc.
https://www.google.com/,Legitimate,GOOGLE.COMgoogle.com,Google LLC,None,None,CA,None,US,abusecomplaints@markmonitor.comwhoisrequest@markmonitor.com,GOOGLE.COMgoogle.com,1,MarkMonitor Inc.
https://www.google.com/,Legitimate,GOOGLE.COMgoogle.com,Google LLC,None,None,CA,None,US,abusecomplaints@markmonitor.comwhoisrequest@markmonitor.com,GOOGLE.COMgoogle.com,1,MarkMonitor Inc.
https://www.google.com/,Legitimate,GOOGLE.COMgoogle.com,Google LLC,None,None,CA,None,US,abusecomplaints@markmonitor.comwhoisrequest@markmonitor.com,GOOGLE.COMgoogle.com,1,MarkMonitor Inc.
https://www.google.com/,Legitimate,GOOGLE.COMgoogle.com,Google LLC,None,None,CA,None,US,abusecomplaints@markmonitor.comwhoisrequest@markmonitor.com,GOOGLE.COMgoogle.com,1,MarkMonitor Inc.
https://www.google.com/,Legitimate,GOOGLE.COMgoogle.com,Google LLC,None,None,CA,None,US,abusecomplaints@markmonitor.comwhoisrequest@markmonitor.com,GOOGLE.COMgoogle.com,1,MarkMonitor Inc.
https://promo-twitter.info,Malicious,PROMO-TWITTER.INFO,Privacy Protection,PO box 87, REG.RU Protection Service,Moscow,None,123007,RU,abuse@reg.ruPROMO-TWITTER.INFO@regprivate.ru,PROMO-TWITTER.INFO,-1,Registrar of domain names REG.RU LLC
<<<<<<< HEAD
https://www.google.com/,Legitimate,GOOGLE.COMgoogle.com,Google LLC,None,None,CA,None,US,abusecomplaints@markmonitor.comwhoisrequest@markmonitor.com,GOOGLE.COMgoogle.com,1,MarkMonitor Inc.
https://www.google.com/,Legitimate,GOOGLE.COMgoogle.com,Google LLC,None,None,CA,None,US,abusecomplaints@markmonitor.comwhoisrequest@markmonitor.com,GOOGLE.COMgoogle.com,1,MarkMonitor Inc.
https://www.google.com/,Legitimate,GOOGLE.COMgoogle.com,Google LLC,None,None,CA,None,US,abusecomplaints@markmonitor.comwhoisrequest@markmonitor.com,GOOGLE.COMgoogle.com,1,MarkMonitor Inc.
https://www.google.com/,Legitimate,GOOGLE.COMgoogle.com,Google LLC,None,None,CA,None,US,abusecomplaints@markmonitor.comwhoisrequest@markmonitor.com,GOOGLE.COMgoogle.com,1,MarkMonitor Inc.
https://www.google.com/,Legitimate,GOOGLE.COMgoogle.com,Google LLC,None,None,CA,None,US,abusecomplaints@markmonitor.comwhoisrequest@markmonitor.com,GOOGLE.COMgoogle.com,1,MarkMonitor Inc.
https://www.google.com/,Legitimate,GOOGLE.COMgoogle.com,Google LLC,None,None,CA,None,US,abusecomplaints@markmonitor.comwhoisrequest@markmonitor.com,GOOGLE.COMgoogle.com,1,MarkMonitor Inc.
https://www.google.com/,Legitimate,GOOGLE.COMgoogle.com,Google LLC,None,None,CA,None,US,abusecomplaints@markmonitor.comwhoisrequest@markmonitor.com,GOOGLE.COMgoogle.com,1,MarkMonitor Inc.
https://www.google.com/,Legitimate,GOOGLE.COMgoogle.com,Google LLC,None,None,CA,None,US,abusecomplaints@markmonitor.comwhoisrequest@markmonitor.com,GOOGLE.COMgoogle.com,1,MarkMonitor Inc.
=======
>>>>>>> 41ac952948214c44792531743bf0424fdec46cc7
https://www.google.com,Legitimate,GOOGLE.COMgoogle.com,Google LLC,None,None,CA,None,US,abusecomplaints@markmonitor.comwhoisrequest@markmonitor.com,GOOGLE.COMgoogle.com,1,MarkMonitor Inc.
https://www.google.com,Legitimate,GOOGLE.COMgoogle.com,Google LLC,None,None,CA,None,US,abusecomplaints@markmonitor.comwhoisrequest@markmonitor.com,GOOGLE.COMgoogle.com,1,MarkMonitor Inc.
https://promo-twitter.info,Malicious,PROMO-TWITTER.INFO,Privacy Protection,PO box 87, REG.RU Protection Service,Moscow,None,123007,RU,abuse@reg.ruPROMO-TWITTER.INFO@regprivate.ru,PROMO-TWITTER.INFO,-1,Registrar of domain names REG.RU LLC
https://promo-twitter.info,Malicious,PROMO-TWITTER.INFO,Privacy Protection,PO box 87, REG.RU Protection Service,Moscow,None,123007,RU,abuse@reg.ruPROMO-TWITTER.INFO@regprivate.ru,PROMO-TWITTER.INFO,-1,Registrar of domain names REG.RU LLC
https://www.mi.com/,Legitimate,MI.COM,XIAOMI INC,The Rainbow City Office Building,Beijing,Beijing,100085,CN,abuse@web.comdns-admin@xiaomi.com,MI.COM,1026,Network Solutions LLC
https://home-paypal-jp.moonkahonda.com/panel_JP/-/jp/xppl/,Malicious,MOONKAHONDA.COM,Anmoul Infomatics Pvt. Ltd.,84, New Baradwari, Sakchi, Jamshedpur,Jamshedpur,Jharkhand,831001,IN,abuse-contact@publicdomainregistry.comanmolsingh@anmoul.com,MOONKAHONDA.COM,-1,PDR Ltd. d/b/a PublicDomainRegistry.com
https://home-paypal-jp.moonkahonda.com/panel_JP/-/jp/xppl/,Malicious,MOONKAHONDA.COM,Anmoul Infomatics Pvt. Ltd.,84, New Baradwari, Sakchi, Jamshedpur,Jamshedpur,Jharkhand,831001,IN,abuse-contact@publicdomainregistry.comanmolsingh@anmoul.com,MOONKAHONDA.COM,-1,PDR Ltd. d/b/a PublicDomainRegistry.com
https://www.mi.com,Legitimate,MI.COM,XIAOMI INC,The Rainbow City Office Building,Beijing,Beijing,100085,CN,abuse@web.comdns-admin@xiaomi.comdomain.operations@web.com,MI.COM,806,Network Solutions LLC
https://technoutsav.techgig.com/,Legitimate,TECHGIG.COM,REDACTED FOR PRIVACY,REDACTED FOR PRIVACY,REDACTED FOR PRIVACY,ON,REDACTED FOR PRIVACY,CA,domainabuse@tucows.comCorp.Domains@timesinternet.in,TECHGIG.COM,23336,TUCOWS INC.
https://www2.deloitte.com/in/en.html,Legitimate,DELOITTE.COM,Deloitte & Touche LLP (DELOITTE-DOM),4022 SELLS DR,HERMITAGE,TN,37076-2903,US,abuse@web.comhostmaster@deloitte.comdomain.operations@web.com,DELOITTE.COM,1790,Network Solutions LLC
https://home-paypal-jp.moonkahonda.com/panel_JP/-/jp/xppl/,Malicious,MOONKAHONDA.COM,Anmoul Infomatics Pvt. Ltd.,84, New Baradwari, Sakchi, Jamshedpur,Jamshedpur,Jharkhand,831001,IN,abuse-contact@publicdomainregistry.comanmolsingh@anmoul.com,MOONKAHONDA.COM,-1,PDR Ltd. d/b/a PublicDomainRegistry.com
https://www.mi.com,Legitimate,MI.COM,XIAOMI INC,The Rainbow City Office Building,Beijing,Beijing,100085,CN,abuse@web.comdns-admin@xiaomi.comdomain.operations@web.com,MI.COM,806,Network Solutions LLC
https://home-paypal-jp.moonkahonda.com/panel_JP/-/jp/xppl/,Malicious,MOONKAHONDA.COM,Anmoul Infomatics Pvt. Ltd.,84, New Baradwari, Sakchi, Jamshedpur,Jamshedpur,Jharkhand,831001,IN,abuse-contact@publicdomainregistry.comanmolsingh@anmoul.com,MOONKAHONDA.COM,-1,PDR Ltd. d/b/a PublicDomainRegistry.com
https://www.mi.com,Legitimate,MI.COM,XIAOMI INC,The Rainbow City Office Building,Beijing,Beijing,100085,CN,abuse@web.comdns-admin@xiaomi.comdomain.operations@web.com,MI.COM,806,Network Solutions LLC
https://home-paypal-jp.moonkahonda.com/panel_JP/-/jp/xppl/,Malicious,MOONKAHONDA.COM,Anmoul Infomatics Pvt. Ltd.,84, New Baradwari, Sakchi, Jamshedpur,Jamshedpur,Jharkhand,831001,IN,abuse-contact@publicdomainregistry.comanmolsingh@anmoul.com,MOONKAHONDA.COM,-1,PDR Ltd. d/b/a PublicDomainRegistry.com
https://home-paypal-jp.moonkahonda.com/panel_JP/-/jp/xppl/,Malicious,MOONKAHONDA.COM,Anmoul Infomatics Pvt. Ltd.,84, New Baradwari, Sakchi, Jamshedpur,Jamshedpur,Jharkhand,831001,IN,abuse-contact@publicdomainregistry.comanmolsingh@anmoul.com,MOONKAHONDA.COM,-1,PDR Ltd. d/b/a PublicDomainRegistry.com
https://home-paypal-jp.moonkahonda.com/panel_JP/-/jp/xppl/,Malicious,MOONKAHONDA.COM,Anmoul Infomatics Pvt. Ltd.,84, New Baradwari, Sakchi, Jamshedpur,Jamshedpur,Jharkhand,831001,IN,abuse-contact@publicdomainregistry.comanmolsingh@anmoul.com,MOONKAHONDA.COM,-1,PDR Ltd. d/b/a PublicDomainRegistry.com
https://github.com/,Legitimate,GITHUB.COMgithub.com,GitHub Inc.,None,None,CA,None,US,abusecomplaints@markmonitor.comwhoisrequest@markmonitor.com,GITHUB.COMgithub.com,64,MarkMonitor Inc.
